[{"OBJECT_NAME":"STARLINK-2040","OBJECT_ID":"2021-012AN","EPOCH":"2026-03-09T05:27:02.755872","MEAN_MOTION":15.29358641,"ECCENTRICITY":0.00013955,"INCLINATION":53.1596,"RA_OF_ASC_NODE":51.6846,"ARG_OF_PERICENTER":87.6283,"MEAN_ANOMALY":272.4877,"EPHEMERIS_TYPE":0,"CLASSIFICATION_TYPE":"U","NORAD_CAT_ID":47656,"ELEMENT_SET_NO":999,"REV_AT_EPOCH":28022,"BSTAR":6.79193e-7,"MEAN_MOTION_DOT":-3.36e-6,"MEAN_MOTION_DDOT":0},{"OBJECT_NAME":"OBJECT L","OBJECT_ID":"2023-085L","EPOCH":"2026-03-09T23:02:21.999840","MEAN_MOTION":15.29079976,"ECCENTRICITY":0.0005428,"INCLINATION":97.486,"RA_OF_ASC_NODE":178.8598,"ARG_OF_PERICENTER":50.8528,"MEAN_ANOMALY":309.3193,"EPHEMERIS_TYPE":0,"CLASSIFICATION_TYPE":"U","NORAD_CAT_ID":57014,"ELEMENT_SET_NO":999,"REV_AT_EPOCH":15144,"BSTAR":0.00063462603,"MEAN_MOTION_DOT":0.00017871,"MEAN_MOTION_DDOT":0}]
